[{"OBJECT_NAME":"GAOFEN-3","OBJECT_ID":"2016-049A","EPOCH":"2026-03-10T00:17:49.684704","MEAN_MOTION":14.42215824,"ECCENTRICITY":0.00016662,"INCLINATION":98.4056,"RA_OF_ASC_NODE":78.2808,"ARG_OF_PERICENTER":90.4682,"MEAN_ANOMALY":269.6698,"EPHEMERIS_TYPE":0,"CLASSIFICATION_TYPE":"U","NORAD_CAT_ID":41727,"ELEMENT_SET_NO":999,"REV_AT_EPOCH":50435,"BSTAR":-1.4677779e-5,"MEAN_MOTION_DOT":-9.2e-7,"MEAN_MOTION_DDOT":0},{"OBJECT_NAME":"FENGYUN 1C DEB","OBJECT_ID":"1999-025EQW","EPOCH":"2026-02-26T04:52:43.538016","MEAN_MOTION":14.26032443,"ECCENTRICITY":0.0076403,"INCLINATION":98.3645,"RA_OF_ASC_NODE":50.9878,"ARG_OF_PERICENTER":300.8645,"MEAN_ANOMALY":58.5036,"EPHEMERIS_TYPE":0,"CLASSIFICATION_TYPE":"U","NORAD_CAT_ID":38149,"ELEMENT_SET_NO":999,"REV_AT_EPOCH":71563,"BSTAR":0.00025462,"MEAN_MOTION_DOT":5.85e-6,"MEAN_MOTION_DDOT":0}]
